CCSDS_OMM_VERS = 2.0
CREATION_DATE  = 
ORIGINATOR     = 

OBJECT_NAME    = STARLINK-36267
OBJECT_ID      = 2025-304G
CENTER_NAME    = EARTH
REF_FRAME      = TEME
TIME_SYSTEM    = UTC
MEAN_ELEMENT_THEORY = SGP/SGP4

EPOCH          = 2026-01-13T14:00:01.000224
MEAN_MOTION    = 15.42717648
ECCENTRICITY   = .00036389
INCLINATION    = 70.0003
RA_OF_ASC_NODE = 318.5524
ARG_OF_PERICENTER = 266.2766
MEAN_ANOMALY   = 17.2598

EPHEMERIS_TYPE = 0
CLASSIFICATION_TYPE = U
NORAD_CAT_ID   = 67198
ELEMENT_SET_NO = 999
REV_AT_EPOCH   = 555
BSTAR          = .47912619E-3
MEAN_MOTION_DOT = .20895E-3
MEAN_MOTION_DDOT = 0

CCSDS_OMM_VERS = 2.0
CREATION_DATE  = 
ORIGINATOR     = 

OBJECT_NAME    = STARLINK-36268
OBJECT_ID      = 2025-304H
CENTER_NAME    = EARTH
REF_FRAME      = TEME
TIME_SYSTEM    = UTC
MEAN_ELEMENT_THEORY = SGP/SGP4

EPOCH          = 2026-01-13T13:46:37.311744
MEAN_MOTION    = 15.52557858
ECCENTRICITY   = .00034602
INCLINATION    = 70.0002
RA_OF_ASC_NODE = 318.4304
ARG_OF_PERICENTER = 275.0161
MEAN_ANOMALY   = 85.0631

EPHEMERIS_TYPE = 0
CLASSIFICATION_TYPE = U
NORAD_CAT_ID   = 67199
ELEMENT_SET_NO = 999
REV_AT_EPOCH   = 550
BSTAR          = .81059751E-3
MEAN_MOTION_DOT = .50087E-3
MEAN_MOTION_DDOT = 0

CCSDS_OMM_VERS = 2.0
CREATION_DATE  = 
ORIGINATOR     = 

OBJECT_NAME    = STARLINK-36270
OBJECT_ID      = 2025-304J
CENTER_NAME    = EARTH
REF_FRAME      = TEME
TIME_SYSTEM    = UTC
MEAN_ELEMENT_THEORY = SGP/SGP4

EPOCH          = 2026-01-13T14:49:10.174368
MEAN_MOTION    = 15.42739775
ECCENTRICITY   = .00033353
INCLINATION    = 70.0000
RA_OF_ASC_NODE = 318.5886
ARG_OF_PERICENTER = 281.4728
MEAN_ANOMALY   = 78.6079

EPHEMERIS_TYPE = 0
CLASSIFICATION_TYPE = U
NORAD_CAT_ID   = 67200
ELEMENT_SET_NO = 999
REV_AT_EPOCH   = 550
BSTAR          = .94532827E-3
MEAN_MOTION_DOT = .41512E-3
MEAN_MOTION_DDOT = 0

CCSDS_OMM_VERS = 2.0
CREATION_DATE  = 
ORIGINATOR     = 

OBJECT_NAME    = STARLINK-36262
OBJECT_ID      = 2025-304K
CENTER_NAME    = EARTH
REF_FRAME      = TEME
TIME_SYSTEM    = UTC
MEAN_ELEMENT_THEORY = SGP/SGP4

EPOCH          = 2026-01-13T14:37:30.033696
MEAN_MOTION    = 15.42744188
ECCENTRICITY   = .00033941
INCLINATION    = 70.0000
RA_OF_ASC_NODE = 318.5591
ARG_OF_PERICENTER = 271.1808
MEAN_ANOMALY   = 88.8985

EPHEMERIS_TYPE = 0
CLASSIFICATION_TYPE = U
NORAD_CAT_ID   = 67201
ELEMENT_SET_NO = 999
REV_AT_EPOCH   = 550
BSTAR          = .10225175E-2
MEAN_MOTION_DOT = .4494E-3
MEAN_MOTION_DDOT = 0

CCSDS_OMM_VERS = 2.0
CREATION_DATE  = 
ORIGINATOR     = 

OBJECT_NAME    = STARLINK-36263
OBJECT_ID      = 2025-304L
CENTER_NAME    = EARTH
REF_FRAME      = TEME
TIME_SYSTEM    = UTC
MEAN_ELEMENT_THEORY = SGP/SGP4

EPOCH          = 2026-01-13T14:00:01.000224
MEAN_MOTION    = 15.42704795
ECCENTRICITY   = .00030577
INCLINATION    = 70.0004
RA_OF_ASC_NODE = 318.5782
ARG_OF_PERICENTER = 271.9477
MEAN_ANOMALY   = 348.6368

EPHEMERIS_TYPE = 0
CLASSIFICATION_TYPE = U
NORAD_CAT_ID   = 67202
ELEMENT_SET_NO = 999
REV_AT_EPOCH   = 558
BSTAR          = .46120156E-3
MEAN_MOTION_DOT = .20096E-3
MEAN_MOTION_DDOT = 0

CCSDS_OMM_VERS = 2.0
CREATION_DATE  = 
ORIGINATOR     = 

OBJECT_NAME    = STARLINK-36224
OBJECT_ID      = 2025-304M
CENTER_NAME    = EARTH
REF_FRAME      = TEME
TIME_SYSTEM    = UTC
MEAN_ELEMENT_THEORY = SGP/SGP4

EPOCH          = 2026-01-13T14:00:01.000224
MEAN_MOTION    = 15.42708282
ECCENTRICITY   = .0003329
INCLINATION    = 70.0002
RA_OF_ASC_NODE = 318.5266
ARG_OF_PERICENTER = 273.6547
MEAN_ANOMALY   = 31.9084

EPHEMERIS_TYPE = 0
CLASSIFICATION_TYPE = U
NORAD_CAT_ID   = 67203
ELEMENT_SET_NO = 999
REV_AT_EPOCH   = 558
BSTAR          = .52716834E-3
MEAN_MOTION_DOT = .23004E-3
MEAN_MOTION_DDOT = 0

CCSDS_OMM_VERS = 2.0
CREATION_DATE  = 
ORIGINATOR     = 

OBJECT_NAME    = STARLINK-36185
OBJECT_ID      = 2025-304N
CENTER_NAME    = EARTH
REF_FRAME      = TEME
TIME_SYSTEM    = UTC
MEAN_ELEMENT_THEORY = SGP/SGP4

EPOCH          = 2026-01-13T14:00:01.000224
MEAN_MOTION    = 15.42691571
ECCENTRICITY   = .00028264
INCLINATION    = 70.0001
RA_OF_ASC_NODE = 318.4752
ARG_OF_PERICENTER = 263.2410
MEAN_ANOMALY   = 87.3509

EPHEMERIS_TYPE = 0
CLASSIFICATION_TYPE = U
NORAD_CAT_ID   = 67204
ELEMENT_SET_NO = 999
REV_AT_EPOCH   = 558
BSTAR          = .60561735E-3
MEAN_MOTION_DOT = .26445E-3
MEAN_MOTION_DDOT = 0

CCSDS_OMM_VERS = 2.0
CREATION_DATE  = 
ORIGINATOR     = 

OBJECT_NAME    = STARLINK-36197
OBJECT_ID      = 2025-304P
CENTER_NAME    = EARTH
REF_FRAME      = TEME
TIME_SYSTEM    = UTC
MEAN_ELEMENT_THEORY = SGP/SGP4

EPOCH          = 2026-01-13T14:00:01.000224
MEAN_MOTION    = 15.43863816
ECCENTRICITY   = .00038889
INCLINATION    = 69.9997
RA_OF_ASC_NODE = 318.4239
ARG_OF_PERICENTER = 259.6106
MEAN_ANOMALY   = 135.3553

EPHEMERIS_TYPE = 0
CLASSIFICATION_TYPE = U
NORAD_CAT_ID   = 67205
ELEMENT_SET_NO = 999
REV_AT_EPOCH   = 555
BSTAR          = -.39175093E-1
MEAN_MOTION_DOT = -.1602589E-1
MEAN_MOTION_DDOT = 0

CCSDS_OMM_VERS = 2.0
CREATION_DATE  = 
ORIGINATOR     = 

OBJECT_NAME    = STARLINK-36056
OBJECT_ID      = 2025-304Q
CENTER_NAME    = EARTH
REF_FRAME      = TEME
TIME_SYSTEM    = UTC
MEAN_ELEMENT_THEORY = SGP/SGP4

EPOCH          = 2026-01-13T15:17:02.653728
MEAN_MOTION    = 15.49738142
ECCENTRICITY   = .0003918
INCLINATION    = 70.0003
RA_OF_ASC_NODE = 318.2467
ARG_OF_PERICENTER = 279.2411
MEAN_ANOMALY   = 80.8331

EPHEMERIS_TYPE = 0
CLASSIFICATION_TYPE = U
NORAD_CAT_ID   = 67206
ELEMENT_SET_NO = 999
REV_AT_EPOCH   = 548
BSTAR          = -.86648017E-2
MEAN_MOTION_DOT = -.45626E-2
MEAN_MOTION_DDOT = 0

CCSDS_OMM_VERS = 2.0
CREATION_DATE  = 
ORIGINATOR     = 

OBJECT_NAME    = STARLINK-36225
OBJECT_ID      = 2025-304R
CENTER_NAME    = EARTH
REF_FRAME      = TEME
TIME_SYSTEM    = UTC
MEAN_ELEMENT_THEORY = SGP/SGP4

EPOCH          = 2026-01-13T13:42:40.173120
MEAN_MOTION    = 15.52558117
ECCENTRICITY   = .00034625
INCLINATION    = 70.0003
RA_OF_ASC_NODE = 318.4193
ARG_OF_PERICENTER = 271.4844
MEAN_ANOMALY   = 88.5946

EPHEMERIS_TYPE = 0
CLASSIFICATION_TYPE = U
NORAD_CAT_ID   = 67207
ELEMENT_SET_NO = 999
REV_AT_EPOCH   = 550
BSTAR          = .10232986E-2
MEAN_MOTION_DOT = .63381E-3
MEAN_MOTION_DDOT = 0

CCSDS_OMM_VERS = 2.0
CREATION_DATE  = 
ORIGINATOR     = 

OBJECT_NAME    = STARLINK-36265
OBJECT_ID      = 2025-304S
CENTER_NAME    = EARTH
REF_FRAME      = TEME
TIME_SYSTEM    = UTC
MEAN_ELEMENT_THEORY = SGP/SGP4

EPOCH          = 2026-01-13T14:34:38.682624
MEAN_MOTION    = 15.42735689
ECCENTRICITY   = .00033774
INCLINATION    = 70.0000
RA_OF_ASC_NODE = 318.5510
ARG_OF_PERICENTER = 271.7877
MEAN_ANOMALY   = 88.2918

EPHEMERIS_TYPE = 0
CLASSIFICATION_TYPE = U
NORAD_CAT_ID   = 67208
ELEMENT_SET_NO = 999
REV_AT_EPOCH   = 550
BSTAR          = .7388978E-3
MEAN_MOTION_DOT = .32372E-3
MEAN_MOTION_DDOT = 0

CCSDS_OMM_VERS = 2.0
CREATION_DATE  = 
ORIGINATOR     = 

OBJECT_NAME    = STARLINK-36226
OBJECT_ID      = 2025-304T
CENTER_NAME    = EARTH
REF_FRAME      = TEME
TIME_SYSTEM    = UTC
MEAN_ELEMENT_THEORY = SGP/SGP4

EPOCH          = 2026-01-13T14:22:58.053792
MEAN_MOTION    = 15.42721696
ECCENTRICITY   = .00033795
INCLINATION    = 70.0001
RA_OF_ASC_NODE = 318.5217
ARG_OF_PERICENTER = 268.3763
MEAN_ANOMALY   = 91.7032

EPHEMERIS_TYPE = 0
CLASSIFICATION_TYPE = U
NORAD_CAT_ID   = 67209
ELEMENT_SET_NO = 999
REV_AT_EPOCH   = 550
BSTAR          = .52033704E-3
MEAN_MOTION_DOT = .22713E-3
MEAN_MOTION_DDOT = 0

