STARLINK-36267          
1 67198U 25304G   26013.58334491  .00020895  00000+0  47913-3 0  9994
2 67198  70.0003 318.5524 0003638 266.2766  17.2598 15.42717648  5558
STARLINK-36268          
1 67199U 25304H   26013.57404296  .00050087  00000+0  81060-3 0  9992
2 67199  70.0002 318.4304 0003460 275.0161  85.0631 15.52557858  5505
STARLINK-36270          
1 67200U 25304J   26013.61747887  .00041512  00000+0  94533-3 0  9998
2 67200  70.0000 318.5886 0003335 281.4728  78.6079 15.42739775  5506
STARLINK-36262          
1 67201U 25304K   26013.60937539  .00044940  00000+0  10225-2 0  9996
2 67201  70.0000 318.5591 0003394 271.1808  88.8985 15.42744188  5503
STARLINK-36263          
1 67202U 25304L   26013.58334491  .00020096  00000+0  46120-3 0  9992
2 67202  70.0004 318.5782 0003057 271.9477 348.6368 15.42704795  5586
STARLINK-36224          
1 67203U 25304M   26013.58334491  .00023004  00000+0  52717-3 0  9994
2 67203  70.0002 318.5266 0003329 273.6547  31.9084 15.42708282  5583
STARLINK-36185          
1 67204U 25304N   26013.58334491  .00026445  00000+0  60562-3 0  9994
2 67204  70.0001 318.4752 0002826 263.2410  87.3509 15.42691571  5586
STARLINK-36197          
1 67205U 25304P   26013.58334491 -.01602589  00000+0 -39175-1 0  9991
2 67205  69.9997 318.4239 0003888 259.6106 135.3553 15.43863816  5552
STARLINK-36056          
1 67206U 25304Q   26013.63683627 -.00456260  00000+0 -86648-2 0  9996
2 67206  70.0003 318.2467 0003918 279.2411  80.8331 15.49738142  5485
STARLINK-36225          
1 67207U 25304R   26013.57129830  .00063381  00000+0  10233-2 0  9994
2 67207  70.0003 318.4193 0003462 271.4844  88.5946 15.52558117  5508
STARLINK-36265          
1 67208U 25304S   26013.60739216  .00032372  00000+0  73890-3 0  9999
2 67208  70.0000 318.5510 0003377 271.7877  88.2918 15.42735689  5500
STARLINK-36226          
1 67209U 25304T   26013.59928303  .00022713  00000+0  52034-3 0  9990
2 67209  70.0001 318.5217 0003379 268.3763  91.7032 15.42721696  5503
